ONEWEB-0281             
1 48999U 21060AJ  23328.77229013  .00000080  00000+0  17605-3 0  9996
2 48999  87.9094  54.9406 0001786  97.0663 263.0671 13.16593218117855
ONEWEB-0282             
1 49000U 21060AK  23328.26986084  .00000019  00000+0  16506-4 0  9994
2 49000  87.9097  55.0568 0001454 113.5568 246.5716 13.16593255116455
ONEWEB-0283             
1 49001U 21060AL  23328.33530289 -.00000136  00000+0 -38840-3 0  9991
2 49001  87.9086  55.0570 0001359 105.8432 254.2849 13.16594828116477
ONEWEB-0284             
1 49002U 21060AM  23328.25297362  .00000147  00000+0  35098-3 0  9997
2 49002  87.9081  55.0689 0001613 114.3853 245.7446 13.16594104116441
ONEWEB-0285             
1 49075U 21075A   23328.63183866  .00000056  00000+0  12148-3 0  9998
2 49075  87.9012 176.7325 0001472  85.3762 274.7535 13.12445131113474
ONEWEB-0286             
1 49076U 21075B   23328.67868956  .00003789  00000+0  10498-1 0  9993
2 49076  87.9010 176.7323 0002279  88.7454 271.3936 13.12415052112838
ONEWEB-0287             
1 49077U 21075C   23328.71081877  .00000060  00000+0  12099-3 0  9998
2 49077  87.9221 191.8244 0001855  91.1483 268.9861 13.17647935111405
ONEWEB-0288             
1 49078U 21075D   23328.66284315  .00000643  00000+0  17530-2 0  9996
2 49078  87.9008 176.7403 0001685  90.5120 269.6202 13.12443108113466
